[{"OBJECT_NAME":"STARLINK-3400","OBJECT_ID":"2022-005AA","EPOCH":"2026-03-09T20:49:04.458144","MEAN_MOTION":15.08832435,"ECCENTRICITY":0.000125,"INCLINATION":53.2183,"RA_OF_ASC_NODE":298.3269,"ARG_OF_PERICENTER":93.2131,"MEAN_ANOMALY":266.9004,"EPHEMERIS_TYPE":0,"CLASSIFICATION_TYPE":"U","NORAD_CAT_ID":51128,"ELEMENT_SET_NO":999,"REV_AT_EPOCH":22875,"BSTAR":1.3723335e-5,"MEAN_MOTION_DOT":-6.9e-7,"MEAN_MOTION_DDOT":0},{"OBJECT_NAME":"OBJECT D","OBJECT_ID":"2025-292D","EPOCH":"2026-03-09T21:45:32.907168","MEAN_MOTION":15.05344615,"ECCENTRICITY":0.00138692,"INCLINATION":97.6365,"RA_OF_ASC_NODE":145.5948,"ARG_OF_PERICENTER":343.7291,"MEAN_ANOMALY":16.3488,"EPHEMERIS_TYPE":0,"CLASSIFICATION_TYPE":"U","NORAD_CAT_ID":66996,"ELEMENT_SET_NO":999,"REV_AT_EPOCH":1350,"BSTAR":0.00030674408,"MEAN_MOTION_DOT":4.34e-5,"MEAN_MOTION_DDOT":0}]
